%
(1001)
(T1  D=0.1575 CR=0. - ZMIN=-0.28 - FLAT END MILL)
G90 G94 G17 G91.1
G64 P0.001 Q0.001
G20
G53 G0 Z0.
(.3 CIRCLUAR THROUGH HOLE 2)
M9
T1 M6
S13000 M3
G4 P10.
G54
M7
G0 X0.842 Y7.0855
G43 Z0.6 H1
G0 Z0.13
G1 Z0.0658 F60.
G19 G2 Y7.0697 Z0.05 J-0.0158 K0.
G1 Y7.0618
G17 G3 X0.8529 Y7.051 I0.0109 J0.
Y7.0945 Z0.0323 I0. J0.0217 F80.
Y7.051 Z0.0146 I0. J-0.0217
Y7.0945 Z-0.0032 I0. J0.0217
Y7.051 Z-0.0209 I0. J-0.0217
Y7.0945 Z-0.0386 I0. J0.0217
Y7.051 Z-0.0563 I0. J-0.0217
Y7.0945 Z-0.074 I0. J0.0217
Y7.051 Z-0.0918 I0. J-0.0217
Y7.0945 Z-0.1095 I0. J0.0217
Y7.051 Z-0.1272 I0. J-0.0217
Y7.0945 Z-0.1449 I0. J0.0217
Y7.051 Z-0.1627 I0. J-0.0217
Y7.0945 Z-0.1804 I0. J0.0217
Y7.051 Z-0.1981 I0. J-0.0217
Y7.0945 Z-0.2158 I0. J0.0217
Y7.051 Z-0.2335 I0. J-0.0217
Y7.0945 Z-0.2513 I0. J0.0217
Y7.051 Z-0.269 I0. J-0.0217
X0.8731 Y7.0808 Z-0.28 I0. J0.0217
X0.8327 Y7.0646 I-0.0202 J-0.0081
X0.8731 Y7.0808 I0.0202 J0.0081
X0.8589 Y7.0869 I-0.0101 J-0.0041 F60.
G1 X0.8516 Y7.0839
X0.8488 Y7.0828 Z-0.2797
X0.846 Y7.0817 Z-0.2788
X0.8435 Y7.0806 Z-0.2773
X0.8413 Y7.0797 Z-0.2754
X0.8395 Y7.079 Z-0.273
X0.8381 Y7.0785 Z-0.2703
X0.8373 Y7.0781 Z-0.2673
X0.837 Y7.078 Z-0.2642
G0 Z0.4
X2.0254 Y8.0073
Z0.13
G1 Z0.0658 F60.
G19 G2 Y7.9915 Z0.05 J-0.0157 K0.
G1 Y7.9836
G17 G3 X2.0362 Y7.9728 I0.0109 J0.
Y8.0163 Z0.0323 I0. J0.0218 F80.
Y7.9728 Z0.0146 I0. J-0.0218
Y8.0163 Z-0.0032 I0. J0.0218
Y7.9728 Z-0.0209 I0. J-0.0218
Y8.0163 Z-0.0386 I0. J0.0218
Y7.9728 Z-0.0563 I0. J-0.0218
Y8.0163 Z-0.074 I0. J0.0218
Y7.9728 Z-0.0918 I0. J-0.0218
Y8.0163 Z-0.1095 I0. J0.0218
Y7.9728 Z-0.1272 I0. J-0.0218
Y8.0163 Z-0.1449 I0. J0.0218
Y7.9728 Z-0.1627 I0. J-0.0218
Y8.0163 Z-0.1804 I0. J0.0218
Y7.9728 Z-0.1981 I0. J-0.0218
Y8.0163 Z-0.2158 I0. J0.0217
Y7.9728 Z-0.2335 I0. J-0.0217
Y8.0163 Z-0.2513 I0. J0.0217
Y7.9728 Z-0.269 I0. J-0.0217
X2.0564 Y8.0027 Z-0.28 I0. J0.0217
X2.0161 Y7.9864 I-0.0202 J-0.0081
X2.0564 Y8.0027 I0.0202 J0.0081
X2.0423 Y8.0087 I-0.0101 J-0.0041 F60.
G1 X2.035 Y8.0057
X2.0321 Y8.0046 Z-0.2797
X2.0294 Y8.0035 Z-0.2788
X2.0268 Y8.0024 Z-0.2773
X2.0246 Y8.0015 Z-0.2754
X2.0228 Y8.0008 Z-0.273
X2.0215 Y8.0003 Z-0.2703
X2.0206 Y7.9999 Z-0.2673
X2.0204 Y7.9998 Z-0.2642
G0 Z0.4
X3.2087 Y8.9291
Z0.13
G1 Z0.0658 F60.
G19 G2 Y8.9133 Z0.05 J-0.0158 K0.
G1 Y8.9054
G17 G3 X3.2196 Y8.8946 I0.0109 J0.
Y8.9381 Z0.0323 I0. J0.0217 F80.
Y8.8946 Z0.0146 I0. J-0.0217
Y8.9381 Z-0.0032 I0. J0.0217
Y8.8946 Z-0.0209 I0. J-0.0217
Y8.9381 Z-0.0386 I0. J0.0217
Y8.8946 Z-0.0563 I0. J-0.0217
Y8.9381 Z-0.074 I0. J0.0217
Y8.8946 Z-0.0918 I0. J-0.0217
Y8.9381 Z-0.1095 I0. J0.0217
Y8.8946 Z-0.1272 I0. J-0.0217
Y8.9381 Z-0.1449 I0. J0.0217
Y8.8946 Z-0.1627 I0. J-0.0217
Y8.9381 Z-0.1804 I0. J0.0217
Y8.8946 Z-0.1981 I0. J-0.0217
Y8.9381 Z-0.2158 I0. J0.0217
Y8.8946 Z-0.2335 I0. J-0.0218
Y8.9381 Z-0.2513 I0. J0.0218
Y8.8946 Z-0.269 I0. J-0.0218
X3.2397 Y8.9245 Z-0.28 I0. J0.0218
X3.1994 Y8.9082 I-0.0202 J-0.0081
X3.2397 Y8.9245 I0.0202 J0.0081
X3.2256 Y8.9305 I-0.0101 J-0.0041 F60.
G1 X3.2183 Y8.9275
X3.2154 Y8.9264 Z-0.2797
X3.2127 Y8.9253 Z-0.2788
X3.2102 Y8.9243 Z-0.2773
X3.208 Y8.9234 Z-0.2754
X3.2061 Y8.9226 Z-0.273
X3.2048 Y8.9221 Z-0.2703
X3.204 Y8.9217 Z-0.2673
X3.2037 Y8.9216 Z-0.2642
G0 Z0.4
X4.2459 Y8.3717
Z0.13
G1 Z0.0658 F60.
G19 G3 Y8.3875 Z0.05 J0.0157 K0.
G1 Y8.3954
G17 G3 X4.2351 Y8.4062 I-0.0109 J0.
Y8.3627 Z0.0323 I0. J-0.0217 F80.
Y8.4062 Z0.0146 I0. J0.0217
Y8.3627 Z-0.0032 I0. J-0.0217
Y8.4062 Z-0.0209 I0. J0.0217
Y8.3627 Z-0.0386 I0. J-0.0217
Y8.4062 Z-0.0563 I0. J0.0217
Y8.3627 Z-0.074 I0. J-0.0217
Y8.4062 Z-0.0918 I0. J0.0217
Y8.3627 Z-0.1095 I0. J-0.0217
Y8.4062 Z-0.1272 I0. J0.0217
Y8.3627 Z-0.1449 I0. J-0.0217
Y8.4062 Z-0.1627 I0. J0.0217
Y8.3627 Z-0.1804 I0. J-0.0217
Y8.4062 Z-0.1981 I0. J0.0217
Y8.3627 Z-0.2158 I0. J-0.0217
Y8.4062 Z-0.2335 I0. J0.0218
Y8.3627 Z-0.2513 I0. J-0.0218
Y8.4062 Z-0.269 I0. J0.0218
X4.2149 Y8.3763 Z-0.28 I0. J-0.0218
X4.2552 Y8.3926 I0.0202 J0.0081
X4.2149 Y8.3763 I-0.0202 J-0.0081
X4.229 Y8.3703 I0.0101 J0.0041 F60.
G1 X4.2363 Y8.3733
X4.2392 Y8.3744 Z-0.2797
X4.2419 Y8.3755 Z-0.2788
X4.2445 Y8.3766 Z-0.2773
X4.2467 Y8.3774 Z-0.2754
X4.2485 Y8.3782 Z-0.273
X4.2498 Y8.3787 Z-0.2703
X4.2507 Y8.3791 Z-0.2673
X4.251 Y8.3792 Z-0.2642
G0 Z0.4
X4.2047 Y9.3972
Z0.13
G1 Z0.0658 F60.
G19 G2 Y9.3815 Z0.05 J-0.0158 K0.
G1 Y9.3736
G17 G3 X4.2155 Y9.3627 I0.0109 J0.
Y9.4062 Z0.0323 I0. J0.0217 F80.
Y9.3627 Z0.0146 I0. J-0.0217
Y9.4062 Z-0.0032 I0. J0.0217
Y9.3627 Z-0.0209 I0. J-0.0217
Y9.4062 Z-0.0386 I0. J0.0217
Y9.3627 Z-0.0563 I0. J-0.0217
Y9.4062 Z-0.074 I0. J0.0217
Y9.3627 Z-0.0918 I0. J-0.0217
Y9.4062 Z-0.1095 I0. J0.0217
Y9.3627 Z-0.1272 I0. J-0.0217
Y9.4062 Z-0.1449 I0. J0.0217
Y9.3627 Z-0.1627 I0. J-0.0217
Y9.4062 Z-0.1804 I0. J0.0217
Y9.3627 Z-0.1981 I0. J-0.0217
Y9.4062 Z-0.2158 I0. J0.0217
Y9.3627 Z-0.2335 I0. J-0.0218
Y9.4062 Z-0.2513 I0. J0.0218
Y9.3627 Z-0.269 I0. J-0.0218
X4.2357 Y9.3926 Z-0.28 I0. J0.0218
X4.1954 Y9.3763 I-0.0202 J-0.0081
X4.2357 Y9.3926 I0.0202 J0.0081
X4.2215 Y9.3986 I-0.0101 J-0.0041 F60.
G1 X4.2142 Y9.3957
X4.2114 Y9.3945 Z-0.2797
X4.2087 Y9.3934 Z-0.2788
X4.2061 Y9.3924 Z-0.2773
X4.2039 Y9.3915 Z-0.2754
X4.2021 Y9.3908 Z-0.273
X4.2007 Y9.3902 Z-0.2703
X4.1999 Y9.3899 Z-0.2673
X4.1996 Y9.3898 Z-0.2642
G0 Z0.4
X5.0565 Y9.4818
Z0.0092
G1 Z-0.055 F60.
G19 G3 Y9.4976 Z-0.0708 J0.0157 K0.
G1 Y9.5054
G17 G3 X5.0456 Y9.5163 I-0.0109 J0.
Y9.4728 Z-0.0885 I0. J-0.0217 F80.
Y9.5163 Z-0.1062 I0. J0.0217
Y9.4728 Z-0.124 I0. J-0.0217
Y9.5163 Z-0.1417 I0. J0.0217
Y9.4728 Z-0.1594 I0. J-0.0217
Y9.5163 Z-0.1771 I0. J0.0217
Y9.4728 Z-0.1948 I0. J-0.0217
Y9.5163 Z-0.2126 I0. J0.0217
Y9.4728 Z-0.2303 I0. J-0.0217
Y9.5163 Z-0.248 I0. J0.0218
Y9.4728 Z-0.2657 I0. J-0.0218
X5.058 Y9.5124 Z-0.28 I0. J0.0218
X5.0331 Y9.4767 I-0.0125 J-0.0178
X5.058 Y9.5124 I0.0125 J0.0178
X5.0429 Y9.5097 I-0.0062 J-0.0089 F60.
G1 X5.0384 Y9.5032
X5.0366 Y9.5007 Z-0.2797
X5.0349 Y9.4983 Z-0.2788
X5.0334 Y9.4961 Z-0.2773
X5.032 Y9.4941 Z-0.2754
X5.0309 Y9.4925 Z-0.273
X5.03 Y9.4913 Z-0.2703
X5.0295 Y9.4906 Z-0.2673
X5.0294 Y9.4903 Z-0.2642
G0 Z0.4
X4.6015 Y7.1145
Z0.13
G1 Z0.0658 F60.
G19 G2 Y7.0988 Z0.05 J-0.0158 K0.
G1 Y7.0909
G17 G3 X4.6123 Y7.08 I0.0109 J0.
Y7.1235 Z0.0323 I0. J0.0217 F80.
Y7.08 Z0.0146 I0. J-0.0217
Y7.1235 Z-0.0032 I0. J0.0217
Y7.08 Z-0.0209 I0. J-0.0217
Y7.1235 Z-0.0386 I0. J0.0217
Y7.08 Z-0.0563 I0. J-0.0217
Y7.1235 Z-0.074 I0. J0.0217
Y7.08 Z-0.0918 I0. J-0.0217
Y7.1235 Z-0.1095 I0. J0.0217
Y7.08 Z-0.1272 I0. J-0.0217
Y7.1235 Z-0.1449 I0. J0.0217
Y7.08 Z-0.1627 I0. J-0.0217
Y7.1235 Z-0.1804 I0. J0.0217
Y7.08 Z-0.1981 I0. J-0.0217
Y7.1235 Z-0.2158 I0. J0.0217
Y7.08 Z-0.2335 I0. J-0.0218
Y7.1235 Z-0.2513 I0. J0.0218
Y7.08 Z-0.269 I0. J-0.0218
X4.6325 Y7.1099 Z-0.28 I0. J0.0218
X4.5922 Y7.0936 I-0.0202 J-0.0081
X4.6325 Y7.1099 I0.0202 J0.0081
X4.6183 Y7.1159 I-0.0101 J-0.0041 F60.
G1 X4.611 Y7.113
X4.6082 Y7.1118 Z-0.2797
X4.6055 Y7.1107 Z-0.2788
X4.6029 Y7.1097 Z-0.2773
X4.6007 Y7.1088 Z-0.2754
X4.5989 Y7.1081 Z-0.273
X4.5976 Y7.1075 Z-0.2703
X4.5967 Y7.1072 Z-0.2673
X4.5964 Y7.1071 Z-0.2642
G0 Z0.4
X5.4604 Y5.8846
Z0.13
G1 Z0.0658 F60.
G19 G2 Y5.8688 Z0.05 J-0.0158 K0.
G1 Y5.861
G17 G3 X5.4713 Y5.8501 I0.0109 J0.
Y5.8936 Z0.0323 I0. J0.0218 F80.
Y5.8501 Z0.0146 I0. J-0.0218
Y5.8936 Z-0.0032 I0. J0.0218
Y5.8501 Z-0.0209 I0. J-0.0218
Y5.8936 Z-0.0386 I0. J0.0218
Y5.8501 Z-0.0563 I0. J-0.0218
Y5.8936 Z-0.074 I0. J0.0218
Y5.8501 Z-0.0918 I0. J-0.0218
Y5.8936 Z-0.1095 I0. J0.0218
Y5.8501 Z-0.1272 I0. J-0.0218
Y5.8936 Z-0.1449 I0. J0.0218
Y5.8501 Z-0.1627 I0. J-0.0218
Y5.8936 Z-0.1804 I0. J0.0218
Y5.8501 Z-0.1981 I0. J-0.0217
Y5.8936 Z-0.2158 I0. J0.0217
Y5.8501 Z-0.2335 I0. J-0.0217
Y5.8936 Z-0.2513 I0. J0.0217
Y5.8501 Z-0.269 I0. J-0.0217
X5.4914 Y5.88 Z-0.28 I0. J0.0217
X5.4511 Y5.8637 I-0.0202 J-0.0081
X5.4914 Y5.88 I0.0202 J0.0081
X5.4773 Y5.886 I-0.0101 J-0.0041 F60.
G1 X5.47 Y5.883
X5.4671 Y5.8819 Z-0.2797
X5.4644 Y5.8808 Z-0.2788
X5.4618 Y5.8798 Z-0.2773
X5.4596 Y5.8789 Z-0.2754
X5.4578 Y5.8781 Z-0.273
X5.4565 Y5.8776 Z-0.2703
X5.4556 Y5.8773 Z-0.2673
X5.4554 Y5.8772 Z-0.2642
G0 Z0.4
X6.71 Y2.5948
Z0.13
G1 Z0.0658 F60.
G19 G2 Y2.5791 Z0.05 J-0.0158 K0.
G1 Y2.5712
G17 G3 X6.7209 Y2.5603 I0.0109 J0.
Y2.6038 Z0.0323 I0. J0.0218 F80.
Y2.5603 Z0.0146 I0. J-0.0218
Y2.6038 Z-0.0032 I0. J0.0218
Y2.5603 Z-0.0209 I0. J-0.0218
Y2.6038 Z-0.0386 I0. J0.0218
Y2.5603 Z-0.0563 I0. J-0.0218
Y2.6038 Z-0.074 I0. J0.0217
Y2.5603 Z-0.0918 I0. J-0.0217
Y2.6038 Z-0.1095 I0. J0.0217
Y2.5603 Z-0.1272 I0. J-0.0217
Y2.6038 Z-0.1449 I0. J0.0217
Y2.5603 Z-0.1627 I0. J-0.0217
Y2.6038 Z-0.1804 I0. J0.0217
Y2.5603 Z-0.1981 I0. J-0.0217
Y2.6038 Z-0.2158 I0. J0.0217
Y2.5603 Z-0.2335 I0. J-0.0217
Y2.6038 Z-0.2513 I0. J0.0217
Y2.5603 Z-0.269 I0. J-0.0217
X6.741 Y2.5902 Z-0.28 I0. J0.0217
X6.7007 Y2.5739 I-0.0202 J-0.0081
X6.741 Y2.5902 I0.0202 J0.0081
X6.7269 Y2.5962 I-0.0101 J-0.0041 F60.
G1 X6.7196 Y2.5933
X6.7167 Y2.5921 Z-0.2797
X6.714 Y2.591 Z-0.2788
X6.7115 Y2.59 Z-0.2773
X6.7092 Y2.5891 Z-0.2754
X6.7074 Y2.5884 Z-0.273
X6.7061 Y2.5878 Z-0.2703
X6.7052 Y2.5875 Z-0.2673
X6.705 Y2.5874 Z-0.2642
G0 Z0.4
X8.96 Y2.5948
Z0.13
G1 Z0.0658 F60.
G19 G2 Y2.5791 Z0.05 J-0.0158 K0.
G1 Y2.5712
G17 G3 X8.9709 Y2.5603 I0.0109 J0.
Y2.6038 Z0.0323 I0. J0.0218 F80.
Y2.5603 Z0.0146 I0. J-0.0218
Y2.6038 Z-0.0032 I0. J0.0218
Y2.5603 Z-0.0209 I0. J-0.0218
Y2.6038 Z-0.0386 I0. J0.0218
Y2.5603 Z-0.0563 I0. J-0.0218
Y2.6038 Z-0.074 I0. J0.0217
Y2.5603 Z-0.0918 I0. J-0.0217
Y2.6038 Z-0.1095 I0. J0.0217
Y2.5603 Z-0.1272 I0. J-0.0217
Y2.6038 Z-0.1449 I0. J0.0217
Y2.5603 Z-0.1627 I0. J-0.0217
Y2.6038 Z-0.1804 I0. J0.0217
Y2.5603 Z-0.1981 I0. J-0.0217
Y2.6038 Z-0.2158 I0. J0.0217
Y2.5603 Z-0.2335 I0. J-0.0217
Y2.6038 Z-0.2513 I0. J0.0217
Y2.5603 Z-0.269 I0. J-0.0217
X8.991 Y2.5902 Z-0.28 I0. J0.0217
X8.9507 Y2.5739 I-0.0202 J-0.0081
X8.991 Y2.5902 I0.0202 J0.0081
X8.9769 Y2.5962 I-0.0101 J-0.0041 F60.
G1 X8.9696 Y2.5933
X8.9667 Y2.5921 Z-0.2797
X8.964 Y2.591 Z-0.2788
X8.9615 Y2.59 Z-0.2773
X8.9592 Y2.5891 Z-0.2754
X8.9574 Y2.5884 Z-0.273
X8.9561 Y2.5878 Z-0.2703
X8.9552 Y2.5875 Z-0.2673
X8.955 Y2.5874 Z-0.2642
G0 Z0.6
(.3 CIRCULAR THROUGH HOLE)
M7
G0 X7.5024 Y8.1317
Z0.6
Z0.2
G1 Z0.1152 F13.333
G3 X7.501 Y8.1313 Z0.1086 I0.0114 J-0.0435
X7.497 Y8.1299 Z0.1031 I0.0128 J-0.0431
X7.4916 Y8.1273 Z0.1 I0.0168 J-0.0418
X7.536 Y8.049 Z0.0621 I0.0222 J-0.0391
X7.4916 Y8.1273 Z0.0242 I-0.0222 J0.0391
X7.536 Y8.049 Z-0.0136 I0.0222 J-0.0391
X7.4916 Y8.1273 Z-0.0515 I-0.0222 J0.0391
X7.536 Y8.049 Z-0.0894 I0.0222 J-0.0391
X7.4916 Y8.1273 Z-0.1273 I-0.0222 J0.0391
X7.4688 Y8.0881 Z-0.14 I0.0222 J-0.0391
X7.5203 I0.0257 J0. F80.
X7.3688 I-0.0757 J0.
X7.6203 I0.1257 J0.
X7.2688 I-0.1757 J0.
X7.7203 I0.2257 J0.
X7.1688 I-0.2757 J0.
X7.8203 I0.3257 J0.
X7.0688 I-0.3757 J0.
X7.8203 I0.3757 J0.
G2 X7.8636 Y8.1575 I0.0773 J0.
G3 X7.8956 Y8.2328 I-0.0275 J0.0562
X7.4445 Y8.5619 I-0.4511 J-0.1447
Y7.6144 I0. J-0.4737
X7.8956 Y8.2328 I0. J0.4738
X7.8843 Y8.2372 I-0.0075 J-0.0024
G1 X7.8358 Y8.21
X7.4998 Y8.0612
X7.4883 Y8.056
G3 X7.4878 Y8.0514 I0.0011 J-0.0024
X7.5398 Y8.1249 Z-0.1779 I0.026 J0.0367 F13.333
X7.4878 Y8.0514 Z-0.2158 I-0.026 J-0.0367
X7.5398 Y8.1249 Z-0.2536 I0.026 J0.0367
X7.4688 Y8.0881 Z-0.28 I-0.026 J-0.0367
X7.5203 I0.0257 J0. F80.
X7.3688 I-0.0757 J0.
X7.6203 I0.1257 J0.
X7.2688 I-0.1757 J0.
X7.7203 I0.2257 J0.
X7.1688 I-0.2757 J0.
X7.8203 I0.3257 J0.
X7.0688 I-0.3757 J0.
X7.8203 I0.3757 J0.
G2 X7.8636 Y8.1575 I0.0773 J0.
G3 X7.8956 Y8.2328 I-0.0275 J0.0562
X7.4445 Y8.5619 I-0.4511 J-0.1447
Y7.6144 I0. J-0.4737
X7.8956 Y8.2328 I0. J0.4738
G2 X7.8981 Y8.2414 I0.0077 J0.0025
G3 X7.9004 Y8.25 I-0.0052 J0.006
X7.4445 Y8.5719 I-0.4558 J-0.1619
Y7.6044 I0. J-0.4837
X7.9004 Y8.25 I0. J0.4838
X7.8972 Y8.2551 Z-0.2788 I-0.0143 J-0.0055 F60.
X7.8931 Y8.2582 Z-0.2754 I-0.0111 J-0.0106
X7.8899 Y8.2594 Z-0.2703 I-0.0071 J-0.0136
X7.8887 Y8.2597 Z-0.2643 I-0.0039 J-0.0149
G0 Z0.4
X8.6537 Y9.0131
Z0.2
G1 Z0.1152 F13.333
G3 X8.6523 Y9.0127 Z0.1086 I0.0114 J-0.0435
X8.6484 Y9.0113 Z0.1031 I0.0128 J-0.0431
X8.6429 Y9.0087 Z0.1 I0.0168 J-0.0418
X8.6873 Y8.9304 Z0.0621 I0.0222 J-0.0391
X8.6429 Y9.0087 Z0.0242 I-0.0222 J0.0391
X8.6873 Y8.9304 Z-0.0136 I0.0222 J-0.0391
X8.6429 Y9.0087 Z-0.0515 I-0.0222 J0.0391
X8.6873 Y8.9304 Z-0.0894 I0.0222 J-0.0391
X8.6429 Y9.0087 Z-0.1273 I-0.0222 J0.0391
X8.6201 Y8.9695 Z-0.14 I0.0222 J-0.0391
X8.6716 I0.0257 J0. F80.
X8.5201 I-0.0757 J0.
X8.7716 I0.1257 J0.
X8.4201 I-0.1757 J0.
X8.8716 I0.2257 J0.
X8.3201 I-0.2757 J0.
X8.9716 I0.3257 J0.
X8.2201 I-0.3757 J0.
X8.9716 I0.3757 J0.
G2 X9.0149 Y9.0389 I0.0773 J0.
G3 X9.047 Y9.1142 I-0.0275 J0.0562
X8.5959 Y9.4433 I-0.4511 J-0.1447
Y8.4958 I0. J-0.4737
X9.047 Y9.1142 I0. J0.4738
X9.0356 Y9.1187 I-0.0075 J-0.0024
G1 X8.9872 Y9.0914
X8.6511 Y8.9426
X8.6396 Y8.9374
G3 X8.6392 Y8.9328 I0.0011 J-0.0024
X8.6921 Y8.9335 Z-0.1552 I0.026 J0.0367 F13.333
X8.6381 Y9.0055 Z-0.1931 I-0.027 J0.036
X8.6921 Y8.9335 Z-0.2309 I0.027 J-0.036
X8.6381 Y9.0055 Z-0.2688 I-0.027 J0.036
X8.6201 Y8.9695 Z-0.28 I0.027 J-0.036
X8.6716 I0.0257 J0. F80.
X8.5201 I-0.0757 J0.
X8.7716 I0.1257 J0.
X8.4201 I-0.1757 J0.
X8.8716 I0.2257 J0.
X8.3201 I-0.2757 J0.
X8.9716 I0.3257 J0.
X8.2201 I-0.3757 J0.
X8.9716 I0.3757 J0.
G2 X9.0149 Y9.0389 I0.0773 J0.
G3 X9.047 Y9.1142 I-0.0275 J0.0562
X8.5959 Y9.4433 I-0.4511 J-0.1447
Y8.4958 I0. J-0.4737
X9.047 Y9.1142 I0. J0.4738
G2 X9.0494 Y9.1228 I0.0077 J0.0025
G3 X9.0517 Y9.1315 I-0.0052 J0.006
X8.5959 Y9.4533 I-0.4558 J-0.1619
Y8.4858 I0. J-0.4837
X9.0517 Y9.1315 I0. J0.4838
X9.0485 Y9.1365 Z-0.2788 I-0.0143 J-0.0055 F60.
X9.0444 Y9.1396 Z-0.2754 I-0.0111 J-0.0106
X9.0413 Y9.1408 Z-0.2703 I-0.0071 J-0.0136
X9.0401 Y9.1411 Z-0.2643 I-0.0039 J-0.0149
G0 Z0.4
X8.6537 Y3.8131
Z0.2
G1 Z0.1152 F13.333
G3 X8.6523 Y3.8127 Z0.1086 I0.0114 J-0.0435
X8.6484 Y3.8113 Z0.1031 I0.0128 J-0.0431
X8.6429 Y3.8087 Z0.1 I0.0168 J-0.0418
X8.6873 Y3.7304 Z0.0621 I0.0222 J-0.0391
X8.6429 Y3.8087 Z0.0242 I-0.0222 J0.0391
X8.6873 Y3.7304 Z-0.0136 I0.0222 J-0.0391
X8.6429 Y3.8087 Z-0.0515 I-0.0222 J0.0391
X8.6873 Y3.7304 Z-0.0894 I0.0222 J-0.0391
X8.6429 Y3.8087 Z-0.1273 I-0.0222 J0.0391
X8.6201 Y3.7695 Z-0.14 I0.0222 J-0.0391
X8.6716 I0.0257 J0. F80.
X8.5201 I-0.0757 J0.
X8.7716 I0.1257 J0.
X8.4201 I-0.1757 J0.
X8.8716 I0.2257 J0.
X8.3201 I-0.2757 J0.
X8.9716 I0.3257 J0.
X8.2201 I-0.3757 J0.
X8.9716 I0.3757 J0.
G2 X9.0149 Y3.8389 I0.0773 J0.
G3 X9.047 Y3.9142 I-0.0275 J0.0562
X8.5959 Y4.2433 I-0.4511 J-0.1447
Y3.2958 I0. J-0.4737
X9.047 Y3.9142 I0. J0.4737
X9.0356 Y3.9187 I-0.0075 J-0.0024
G1 X8.9872 Y3.8914
X8.6511 Y3.7426
X8.6396 Y3.7374
G3 X8.6391 Y3.7328 I0.0011 J-0.0024
X8.6911 Y3.8063 Z-0.1779 I0.026 J0.0367 F13.333
X8.6391 Y3.7328 Z-0.2158 I-0.026 J-0.0367
X8.6911 Y3.8063 Z-0.2536 I0.026 J0.0367
X8.6201 Y3.7695 Z-0.28 I-0.026 J-0.0367
X8.6716 I0.0257 J0. F80.
X8.5201 I-0.0757 J0.
X8.7716 I0.1257 J0.
X8.4201 I-0.1757 J0.
X8.8716 I0.2257 J0.
X8.3201 I-0.2757 J0.
X8.9716 I0.3257 J0.
X8.2201 I-0.3757 J0.
X8.9716 I0.3757 J0.
G2 X9.0149 Y3.8389 I0.0773 J0.
G3 X9.047 Y3.9142 I-0.0275 J0.0562
X8.5959 Y4.2433 I-0.4511 J-0.1447
Y3.2958 I0. J-0.4737
X9.047 Y3.9142 I0. J0.4737
G2 X9.0494 Y3.9228 I0.0077 J0.0025
G3 X9.0517 Y3.9315 I-0.0052 J0.006
X8.5959 Y4.2533 I-0.4558 J-0.1619
Y3.2858 I0. J-0.4837
X9.0517 Y3.9315 I0. J0.4837
X9.0485 Y3.9365 Z-0.2788 I-0.0143 J-0.0055 F60.
X9.0444 Y3.9396 Z-0.2754 I-0.0111 J-0.0106
X9.0413 Y3.9408 Z-0.2703 I-0.0071 J-0.0136
X9.0401 Y3.9411 Z-0.2643 I-0.0039 J-0.0149
G0 Z0.6
(2D SLOT CUT)
M7
G0 X9.5343 Y6.2706
Z0.6
Z0.2
G1 Z0.116 F13.333
G18 G3 X9.5186 Z0.1002 I-0.0157 K0. F60.
G1 X9.5028
G17 G3 X9.4871 Y6.2549 I0. J-0.0158
G1 Y4.8938 Z-0.1398 F13.333
G19 G2 Y4.891 Z-0.14 J-0.0027 K0.0155
G1 Y2.2451 F80.
G17 G2 X9.3956 Y2.0175 I-0.3287 J0.
G1 X7.4825 Y0.0225
G2 X7.0176 Y0.0127 I-0.2373 J0.2275
G1 X4.9077 Y2.0361
G2 X4.8148 Y2.1994 I0.2275 J0.2373
G1 X3.6328 Y7.3194
G3 X3.4149 Y7.4444 I-0.1669 J-0.0385
G1 X0.3881 Y6.4984
G2 X0.2111 Y6.54 I-0.0533 J0.1706
G1 X-0.0237 Y6.7651
G2 X-0.0098 Y7.0352 I0.1237 J0.129
G1 X3.5283 Y9.7914
G2 X3.7304 Y9.8608 I0.202 J-0.2594
G1 X9.1583
G2 X9.4871 Y9.532 I0. J-0.3288
G1 Y4.891
Y4.3859 Z-0.1844 F13.333
Z-0.155
Y3.2992
Y3.2284 F80.
Z-0.28 F13.333
Y2.2451 F80.
G2 X9.3956 Y2.0175 I-0.3287 J0.
G1 X8.803 Y1.3995
Z-0.155
X8.0018 Y0.564
Z-0.28 F13.333
X7.4825 Y0.0225 F80.
G2 X7.0176 Y0.0127 I-0.2373 J0.2275
G1 X4.9077 Y2.0361
G2 X4.8148 Y2.1994 I0.2275 J0.2373
G1 X4.3107 Y4.3834
Z-0.155
X4.0503 Y5.5112
Z-0.28 F13.333
X3.6328 Y7.3194 F80.
G3 X3.4149 Y7.4444 I-0.1669 J-0.0385
G1 X0.3881 Y6.4984
G2 X0.2111 Y6.54 I-0.0533 J0.1706
G1 X-0.0237 Y6.7651
G2 X-0.0098 Y7.0352 I0.1237 J0.129
G1 X1.2263 Y7.9981
Z-0.155
X2.1395 Y8.7095
Z-0.28 F13.333
X3.5283 Y9.7914 F80.
G2 X3.7304 Y9.8608 I0.202 J-0.2594
G1 X4.2345
Z-0.155
X5.392
Z-0.28 F13.333
X7.7581 F80.
Z-0.155
X8.9156
Z-0.28 F13.333
X9.1583 F80.
G2 X9.4871 Y9.532 I0. J-0.3288
G1 Y7.9978
Z-0.155
Y6.8403
Z-0.28 F13.333
Y4.3859 F80.
Z-0.155
Y3.2992
G3 X9.5028 Y3.2835 I0.0158 J0. F60.
G1 X9.5343
G0 Z0.6
M9
G53 Z0.
M30
%
